[{"OBJECT_NAME":"STARLINK-34536","OBJECT_ID":"2025-144AA","EPOCH":"2026-01-18T11:33:14.746752","MEAN_MOTION":15.30208564,"ECCENTRICITY":0.00017968,"INCLINATION":53.1614,"RA_OF_ASC_NODE":54.3279,"ARG_OF_PERICENTER":58.1575,"MEAN_ANOMALY":301.96,"EPHEMERIS_TYPE":0,"CLASSIFICATION_TYPE":"U","NORAD_CAT_ID":64748,"ELEMENT_SET_NO":999,"REV_AT_EPOCH":3202,"BSTAR":0.0011416776,"MEAN_MOTION_DOT":0.00033616,"MEAN_MOTION_DDOT":0},{"OBJECT_NAME":"STARLINK-34595","OBJECT_ID":"2025-144AB","EPOCH":"2026-01-18T11:34:45.834816","MEAN_MOTION":15.30199077,"ECCENTRICITY":0.00012447,"INCLINATION":53.1608,"RA_OF_ASC_NODE":54.3326,"ARG_OF_PERICENTER":79.4395,"MEAN_ANOMALY":280.6746,"EPHEMERIS_TYPE":0,"CLASSIFICATION_TYPE":"U","NORAD_CAT_ID":64749,"ELEMENT_SET_NO":999,"REV_AT_EPOCH":3202,"BSTAR":0.00068789447,"MEAN_MOTION_DOT":0.00020069,"MEAN_MOTION_DDOT":0},{"OBJECT_NAME":"STARLINK-34531","OBJECT_ID":"2025-144AC","EPOCH":"2026-01-18T08:02:20.450688","MEAN_MOTION":15.30193639,"ECCENTRICITY":0.00012736,"INCLINATION":53.1582,"RA_OF_ASC_NODE":54.8381,"ARG_OF_PERICENTER":86.5784,"MEAN_ANOMALY":273.5362,"EPHEMERIS_TYPE":0,"CLASSIFICATION_TYPE":"U","NORAD_CAT_ID":64750,"ELEMENT_SET_NO":999,"REV_AT_EPOCH":3200,"BSTAR":0.00046865391,"MEAN_MOTION_DOT":0.00013544,"MEAN_MOTION_DDOT":0},{"OBJECT_NAME":"STARLINK-33965","OBJECT_ID":"2025-147A","EPOCH":"2026-01-18T12:53:47.063328","MEAN_MOTION":15.3021024,"ECCENTRICITY":0.00012206,"INCLINATION":53.1593,"RA_OF_ASC_NODE":115.6793,"ARG_OF_PERICENTER":80.5035,"MEAN_ANOMALY":279.6104,"EPHEMERIS_TYPE":0,"CLASSIFICATION_TYPE":"U","NORAD_CAT_ID":64755,"ELEMENT_SET_NO":999,"REV_AT_EPOCH":3111,"BSTAR":0.00071240842,"MEAN_MOTION_DOT":0.00020806,"MEAN_MOTION_DDOT":0},{"OBJECT_NAME":"STARLINK-34371","OBJECT_ID":"2025-147B","EPOCH":"2026-01-18T22:50:00.854592","MEAN_MOTION":15.30213754,"ECCENTRICITY":0.00012069,"INCLINATION":53.1575,"RA_OF_ASC_NODE":113.9915,"ARG_OF_PERICENTER":73.2917,"MEAN_ANOMALY":286.8216,"EPHEMERIS_TYPE":0,"CLASSIFICATION_TYPE":"U","NORAD_CAT_ID":64756,"ELEMENT_SET_NO":999,"REV_AT_EPOCH":3108,"BSTAR":0.00082814821,"MEAN_MOTION_DOT":0.00024259,"MEAN_MOTION_DDOT":0},{"OBJECT_NAME":"STARLINK-34401","OBJECT_ID":"2025-147C","EPOCH":"2026-01-18T23:05:12.545664","MEAN_MOTION":15.3022565,"ECCENTRICITY":7.214e-5,"INCLINATION":53.158,"RA_OF_ASC_NODE":114.0606,"ARG_OF_PERICENTER":109.3423,"MEAN_ANOMALY":250.7656,"EPHEMERIS_TYPE":0,"CLASSIFICATION_TYPE":"U","NORAD_CAT_ID":64757,"ELEMENT_SET_NO":999,"REV_AT_EPOCH":3106,"BSTAR":0.001258271,"MEAN_MOTION_DOT":0.00037123,"MEAN_MOTION_DDOT":0},{"OBJECT_NAME":"STARLINK-34593","OBJECT_ID":"2025-147D","EPOCH":"2026-01-18T16:00:22.733856","MEAN_MOTION":15.30195876,"ECCENTRICITY":0.00015556,"INCLINATION":53.159,"RA_OF_ASC_NODE":115.06,"ARG_OF_PERICENTER":107.0762,"MEAN_ANOMALY":253.0409,"EPHEMERIS_TYPE":0,"CLASSIFICATION_TYPE":"U","NORAD_CAT_ID":64758,"ELEMENT_SET_NO":999,"REV_AT_EPOCH":3109,"BSTAR":0.00064278807,"MEAN_MOTION_DOT":0.00018724,"MEAN_MOTION_DDOT":0},{"OBJECT_NAME":"STARLINK-34598","OBJECT_ID":"2025-147E","EPOCH":"2026-01-18T15:42:08.431200","MEAN_MOTION":15.30203389,"ECCENTRICITY":0.00010155,"INCLINATION":53.1607,"RA_OF_ASC_NODE":114.9804,"ARG_OF_PERICENTER":82.9593,"MEAN_ANOMALY":277.1523,"EPHEMERIS_TYPE":0,"CLASSIFICATION_TYPE":"U","NORAD_CAT_ID":64759,"ELEMENT_SET_NO":999,"REV_AT_EPOCH":3104,"BSTAR":0.0008236948,"MEAN_MOTION_DOT":0.00024118,"MEAN_MOTION_DDOT":0},{"OBJECT_NAME":"STARLINK-34235","OBJECT_ID":"2025-147F","EPOCH":"2026-01-18T12:58:20.764704","MEAN_MOTION":15.3020137,"ECCENTRICITY":0.00012009,"INCLINATION":53.1591,"RA_OF_ASC_NODE":115.6971,"ARG_OF_PERICENTER":78.1222,"MEAN_ANOMALY":281.9913,"EPHEMERIS_TYPE":0,"CLASSIFICATION_TYPE":"U","NORAD_CAT_ID":64760,"ELEMENT_SET_NO":999,"REV_AT_EPOCH":3111,"BSTAR":0.0008110594,"MEAN_MOTION_DOT":0.0002374,"MEAN_MOTION_DDOT":0},{"OBJECT_NAME":"STARLINK-34635","OBJECT_ID":"2025-147G","EPOCH":"2026-01-18T12:35:33.534816","MEAN_MOTION":15.30195771,"ECCENTRICITY":0.00018661,"INCLINATION":53.1607,"RA_OF_ASC_NODE":115.597,"ARG_OF_PERICENTER":90.7636,"MEAN_ANOMALY":269.3579,"EPHEMERIS_TYPE":0,"CLASSIFICATION_TYPE":"U","NORAD_CAT_ID":64761,"ELEMENT_SET_NO":999,"REV_AT_EPOCH":3107,"BSTAR":0.00098662649,"MEAN_MOTION_DOT":0.00028972,"MEAN_MOTION_DDOT":0},{"OBJECT_NAME":"STARLINK-34638","OBJECT_ID":"2025-147H","EPOCH":"2026-01-18T13:05:56.420160","MEAN_MOTION":15.3020181,"ECCENTRICITY":0.00012184,"INCLINATION":53.1586,"RA_OF_ASC_NODE":115.7287,"ARG_OF_PERICENTER":80.5738,"MEAN_ANOMALY":279.54,"EPHEMERIS_TYPE":0,"CLASSIFICATION_TYPE":"U","NORAD_CAT_ID":64762,"ELEMENT_SET_NO":999,"REV_AT_EPOCH":3107,"BSTAR":0.00051573747,"MEAN_MOTION_DOT":0.00014947,"MEAN_MOTION_DDOT":0},{"OBJECT_NAME":"STARLINK-34534","OBJECT_ID":"2025-147J","EPOCH":"2026-01-18T13:16:34.678560","MEAN_MOTION":15.30205535,"ECCENTRICITY":0.00011619,"INCLINATION":53.1586,"RA_OF_ASC_NODE":115.773,"ARG_OF_PERICENTER":85.1542,"MEAN_ANOMALY":274.9591,"EPHEMERIS_TYPE":0,"CLASSIFICATION_TYPE":"U","NORAD_CAT_ID":64763,"ELEMENT_SET_NO":999,"REV_AT_EPOCH":3107,"BSTAR":0.00061662322,"MEAN_MOTION_DOT":0.00017951,"MEAN_MOTION_DDOT":0},{"OBJECT_NAME":"STARLINK-34261","OBJECT_ID":"2025-147K","EPOCH":"2026-01-18T16:09:29.623392","MEAN_MOTION":15.30203386,"ECCENTRICITY":0.00013264,"INCLINATION":53.1587,"RA_OF_ASC_NODE":115.1,"ARG_OF_PERICENTER":90.2608,"MEAN_ANOMALY":269.8545,"EPHEMERIS_TYPE":0,"CLASSIFICATION_TYPE":"U","NORAD_CAT_ID":64764,"ELEMENT_SET_NO":999,"REV_AT_EPOCH":3113,"BSTAR":0.00076101888,"MEAN_MOTION_DOT":0.0002225,"MEAN_MOTION_DDOT":0},{"OBJECT_NAME":"STARLINK-34566","OBJECT_ID":"2025-147L","EPOCH":"2026-01-18T12:43:08.973408","MEAN_MOTION":15.30205314,"ECCENTRICITY":0.00018771,"INCLINATION":53.1599,"RA_OF_ASC_NODE":115.6258,"ARG_OF_PERICENTER":98.2585,"MEAN_ANOMALY":261.8629,"EPHEMERIS_TYPE":0,"CLASSIFICATION_TYPE":"U","NORAD_CAT_ID":64765,"ELEMENT_SET_NO":999,"REV_AT_EPOCH":3107,"BSTAR":0.00090883649,"MEAN_MOTION_DOT":0.00026659,"MEAN_MOTION_DDOT":0},{"OBJECT_NAME":"STARLINK-34645","OBJECT_ID":"2025-147M","EPOCH":"2026-01-18T23:08:15.209088","MEAN_MOTION":15.30203664,"ECCENTRICITY":0.00016666,"INCLINATION":53.1585,"RA_OF_ASC_NODE":114.0698,"ARG_OF_PERICENTER":101.023,"MEAN_ANOMALY":259.0959,"EPHEMERIS_TYPE":0,"CLASSIFICATION_TYPE":"U","NORAD_CAT_ID":64766,"ELEMENT_SET_NO":999,"REV_AT_EPOCH":3113,"BSTAR":0.00075475219,"MEAN_MOTION_DOT":0.00022063,"MEAN_MOTION_DDOT":0},{"OBJECT_NAME":"STARLINK-34639","OBJECT_ID":"2025-147N","EPOCH":"2026-01-18T12:41:37.888800","MEAN_MOTION":15.30204048,"ECCENTRICITY":0.00020444,"INCLINATION":53.1605,"RA_OF_ASC_NODE":115.6181,"ARG_OF_PERICENTER":92.76,"MEAN_ANOMALY":267.3634,"EPHEMERIS_TYPE":0,"CLASSIFICATION_TYPE":"U","NORAD_CAT_ID":64767,"ELEMENT_SET_NO":999,"REV_AT_EPOCH":3102,"BSTAR":0.00088951928,"MEAN_MOTION_DOT":0.00026082,"MEAN_MOTION_DDOT":0}]
