STARLINK-34536          
1 64748U 25144AA  26018.48142068  .00033616  00000+0  11417-2 0  9999
2 64748  53.1614  54.3279 0001796  58.1575 301.9600 15.30208564 32025
STARLINK-34595          
1 64749U 25144AB  26018.48247494  .00020069  00000+0  68789-3 0  9992
2 64749  53.1608  54.3326 0001244  79.4395 280.6746 15.30199077 32028
STARLINK-34531          
1 64750U 25144AC  26018.33495892  .00013544  00000+0  46865-3 0  9996
2 64750  53.1582  54.8381 0001273  86.5784 273.5362 15.30193639 32001
STARLINK-33965          
1 64755U 25147A   26018.53735027  .00020806  00000+0  71241-3 0  9998
2 64755  53.1593 115.6793 0001220  80.5035 279.6104 15.30210240 31116
STARLINK-34371          
1 64756U 25147B   26018.95139878  .00024259  00000+0  82815-3 0  9992
2 64756  53.1575 113.9915 0001206  73.2917 286.8216 15.30213754 31089
STARLINK-34401          
1 64757U 25147C   26018.96195076  .00037123  00000+0  12583-2 0  9994
2 64757  53.1580 114.0606 0000721 109.3423 250.7656 15.30225650 31063
STARLINK-34593          
1 64758U 25147D   26018.66692979  .00018724  00000+0  64279-3 0  9992
2 64758  53.1590 115.0600 0001555 107.0762 253.0409 15.30195876 31098
STARLINK-34598          
1 64759U 25147E   26018.65426425  .00024118  00000+0  82369-3 0  9997
2 64759  53.1607 114.9804 0001015  82.9593 277.1523 15.30203389 31044
STARLINK-34235          
1 64760U 25147F   26018.54051811  .00023740  00000+0  81106-3 0  9998
2 64760  53.1591 115.6971 0001200  78.1222 281.9913 15.30201370 31115
STARLINK-34635          
1 64761U 25147G   26018.52469369  .00028972  00000+0  98663-3 0  9996
2 64761  53.1607 115.5970 0001866  90.7636 269.3579 15.30195771 31079
STARLINK-34638          
1 64762U 25147H   26018.54579190  .00014947  00000+0  51574-3 0  9990
2 64762  53.1586 115.7287 0001218  80.5738 279.5400 15.30201810 31078
STARLINK-34534          
1 64763U 25147J   26018.55317915  .00017951  00000+0  61662-3 0  9994
2 64763  53.1586 115.7730 0001161  85.1542 274.9591 15.30205535 31071
STARLINK-34261          
1 64764U 25147K   26018.67325953  .00022250  00000+0  76102-3 0  9992
2 64764  53.1587 115.1000 0001326  90.2608 269.8545 15.30203386 31131
STARLINK-34566          
1 64765U 25147L   26018.52996497  .00026659  00000+0  90884-3 0  9994
2 64765  53.1599 115.6258 0001877  98.2585 261.8629 15.30205314 31079
STARLINK-34645          
1 64766U 25147M   26018.96406492  .00022063  00000+0  75475-3 0  9998
2 64766  53.1585 114.0698 0001666 101.0230 259.0959 15.30203664 31130
STARLINK-34639          
1 64767U 25147N   26018.52891075  .00026082  00000+0  88952-3 0  9995
2 64767  53.1605 115.6181 0002044  92.7600 267.3634 15.30204048 31023
